NORAD_CAT_ID,OBJECT_NAME,OBJECT_TYPE,EPOCH,MEAN_MOTION,ECCENTRICITY,INCLINATION,RA_OF_ASC_NODE,ARG_OF_PERICENTER,MEAN_ANOMALY,BSTAR,MEAN_MOTION_DOT,MEAN_MOTION_DDOT,TLE_LINE0,TLE_LINE1,TLE_LINE2,SEMIMAJOR_AXIS,PERIOD,APOGEE,PERIGEE,DECAYED
54075.0,STARLINK-5212,PAYLOAD,2024-05-13 06:27:00,15.08815218,0.0001015,53.2194,85.9214,99.8603,260.2504,0.00039038,5.926e-05,0.0,0 STARLINK-5212,1 54075U 22136AA  24134.26875739  .00005926  00000-0  39038-3 0  9994,2 54075  53.2194  85.9214 0001015  99.8603 260.2504 15.08815218 86943,6917.956,95.439,540.523,539.119,0.0
54075.0,STARLINK-5212,PAYLOAD,2024-05-13 14:23:54,15.08849298,0.0001329,53.2174,84.438,85.1449,274.9695,0.0001868,2.687e-05,0.0,0 STARLINK-5212,1 54075U 22136AA  24134.59994067  .00002687  00000-0  18680-3 0  9997,2 54075  53.2174  84.4380 0001329  85.1449 274.9695 15.08849298 86996,6917.852,95.437,540.636,538.798,0.0
54075.0,STARLINK-5212,PAYLOAD,2024-05-14 01:31:37,15.08847506,0.0001417,53.2163,82.3589,59.9461,300.1671,0.00097405,0.00015251,0.0,0 STARLINK-5212,1 54075U 22136AA  24135.06362456  .00015251  00000-0  97405-3 0  9994,2 54075  53.2163  82.3589 0001417  59.9461 300.1671 15.08847506 86584,6917.857,95.437,540.703,538.742,0.0
54075.0,STARLINK-5212,PAYLOAD,2024-05-15 02:57:44,15.08867948,0.0001541,53.2187,77.5937,88.952,271.1648,0.00026754,3.976e-05,0.0,0 STARLINK-5212,1 54075U 22136AA  24136.12343694  .00003976  00000-0  26754-3 0  9995,2 54075  53.2187  77.5937 0001541  88.9520 271.1648 15.08867948 87224,6917.795,95.436,540.726,538.594,0.0
54075.0,STARLINK-5212,PAYLOAD,2024-05-15 20:27:00,15.08857365,0.0001465,53.2179,74.324,100.1615,259.9542,-0.00024939,-4.257e-05,0.0,0 STARLINK-5212,1 54075U 22136AA  24136.85208754 -.00004257  00000-0 -24939-3 0  9990,2 54075  53.2179  74.3240 0001465 100.1615 259.9542 15.08857365 87335,6917.827,95.436,540.706,538.679,0.0
54075.0,STARLINK-5212,PAYLOAD,2024-05-16 02:48:32,15.08865347,0.0001349,53.218,73.1426,81.1643,278.9502,-9.3883e-05,-1.783e-05,0.0,0 STARLINK-5212,1 54075U 22136AA  24137.11703843 -.00001783  00000-0 -93883-4 0  9995,2 54075  53.2180  73.1426 0001349  81.1643 278.9502 15.08865347 87370,6917.803,95.436,540.601,538.735,0.0
54075.0,STARLINK-5212,PAYLOAD,2024-05-16 12:20:50,15.08856635,0.0001455,53.2184,71.3543,88.5988,271.5171,-6.6884e-05,-1.353e-05,0.0,0 STARLINK-5212,1 54075U 22136AA  24137.51447391 -.00001353  00000-0 -66884-4 0  9996,2 54075  53.2184  71.3543 0001455  88.5988 271.5171 15.08856635 86959,6917.83,95.437,540.701,538.688,0.0
54075.0,STARLINK-5212,PAYLOAD,2024-05-16 18:42:24,15.08842555,0.0001744,53.2181,70.1646,80.8225,279.2964,-0.00022179,-3.816e-05,0.0,0 STARLINK-5212,1 54075U 22136AA  24137.77944681 -.00003816  00000-0 -22179-3 0  9992,2 54075  53.2181  70.1646 0001744  80.8225 279.2964 15.08842555 87476,6917.873,95.437,540.944,538.531,0.0
54075.0,STARLINK-5212,PAYLOAD,2024-05-17 02:39:17,15.08865604,0.0001343,53.2175,68.6781,83.375,276.7395,-1.8264e-05,-5.79e-06,0.0,0 STARLINK-5212,1 54075U 22136AA  24138.11062422 -.00000579  00000-0 -18264-4 0  9999,2 54075  53.2175  68.6781 0001343  83.3750 276.7395 15.08865604 87523,6917.802,95.436,540.596,538.738,0.0
54075.0,STARLINK-5212,PAYLOAD,2024-05-17 12:11:37,15.08847337,0.0001462,53.2183,66.8927,70.0416,290.0734,-0.00013008,-2.358e-05,0.0,0 STARLINK-5212,1 54075U 22136AA  24138.50807687 -.00002358  00000-0 -13008-3 0  9999,2 54075  53.2183  66.8927 0001462  70.0416 290.0734 15.08847337 87583,6917.858,95.437,540.734,538.712,0.0
54075.0,STARLINK-5212,PAYLOAD,2024-05-18 04:05:29,15.08839734,0.0001343,53.2181,63.9185,92.3292,267.7854,7.276e-05,8.7e-06,0.0,0 STARLINK-5212,1 54075U 22136AA  24139.17048546  .00000870  00000-0  72760-4 0  9990,2 54075  53.2181  63.9185 0001343  92.3292 267.7854 15.08839734 87689,6917.881,95.438,540.675,538.817,0.0
54075.0,STARLINK-5212,PAYLOAD,2024-05-18 12:02:25,15.08850754,0.0001266,53.218,62.432,90.2893,269.8244,-1.7501e-05,-5.67e-06,0.0,0 STARLINK-5212,1 54075U 22136AA  24139.50167990 -.00000567  00000-0 -17501-4 0  9999,2 54075  53.2180  62.4320 0001266  90.2893 269.8244 15.08850754 87738,6917.848,95.437,540.588,538.837,0.0
54075.0,STARLINK-5212,PAYLOAD,2024-05-19 03:56:14,15.0887438,0.0001226,53.2183,59.4591,82.8891,277.224,0.00039832,6.063e-05,0.0,0 STARLINK-5212,1 54075U 22136AA  24140.16405132  .00006063  00000-0  39832-3 0  9991,2 54075  53.2183  59.4591 0001226  82.8891 277.2240 15.08874380 87839,6917.775,95.435,540.488,538.792,0.0
54075.0,STARLINK-5212,PAYLOAD,2024-05-20 03:47:05,15.08830612,0.0001439,53.2186,54.9963,105.5435,254.5716,-4.8623e-05,-1.061e-05,0.0,0 STARLINK-5212,1 54075U 22136AA  24141.15769940 -.00001061  00000-0 -48623-4 0  9995,2 54075  53.2186  54.9963 0001439 105.5435 254.5716 15.08830612 87980,6917.909,95.438,540.77,538.779,0.0
54075.0,STARLINK-5212,PAYLOAD,2024-05-20 21:16:19,15.08842249,0.0001451,53.2182,51.7284,85.6936,274.4222,-0.00010112,-1.897e-05,0.0,0 STARLINK-5212,1 54075U 22136AA  24141.88633625 -.00001897  00000-0 -10112-3 0  9993,2 54075  53.2182  51.7284 0001451  85.6936 274.4222 15.08842249 88090,6917.874,95.437,540.742,538.735,0.0
54075.0,STARLINK-5212,PAYLOAD,2024-05-21 03:37:50,15.08852502,0.0001481,53.2177,50.5377,99.1649,260.9511,-1.8393e-05,-5.81e-06,0.0,0 STARLINK-5212,1 54075U 22136AA  24142.15128229 -.00000581  00000-0 -18393-4 0  9992,2 54075  53.2177  50.5377 0001481  99.1649 260.9511 15.08852502 88137,6917.842,95.437,540.732,538.683,0.0
54075.0,STARLINK-5212,PAYLOAD,2024-05-21 21:07:06,15.08834848,0.0001603,53.218,47.2667,97.7305,262.3869,0.00016855,2.395e-05,0.0,0 STARLINK-5212,1 54075U 22136AA  24142.87993538  .00002395  00000-0  16855-3 0  9997,2 54075  53.2180  47.2667 0001603  97.7305 262.3869 15.08834848 88242,6917.896,95.438,540.87,538.652,0.0
54075.0,STARLINK-5212,PAYLOAD,2024-05-21 22:42:29,15.08834898,0.0001565,53.2184,46.9687,105.2248,254.8917,0.00016219,2.294e-05,0.0,0 STARLINK-5212,1 54075U 22136AA  24142.94617487  .00002294  00000-0  16219-3 0  9993,2 54075  53.2184  46.9687 0001565 105.2248 254.8917 15.08834898 87774,6917.896,95.438,540.844,538.678,0.0
54075.0,STARLINK-5212,PAYLOAD,2024-05-22 03:28:38,15.08841366,0.0001584,53.2183,46.0737,117.4122,242.7031,0.00022432,3.284e-05,0.0,0 STARLINK-5212,1 54075U 22136AA  24143.14488871  .00003284  00000-0  22432-3 0  9993,2 54075  53.2183  46.0737 0001584 117.4122 242.7031 15.08841366 88285,6917.876,95.437,540.837,538.645,0.0
54075.0,STARLINK-5212,PAYLOAD,2024-05-22 20:57:53,15.08838723,0.0002794,53.2169,42.8,138.9003,221.22,-4.8243e-05,-1.056e-05,0.0,0 STARLINK-5212,1 54075U 22136AA  24143.87354021 -.00001056  00000-0 -48243-4 0  9998,2 54075  53.2169  42.8000 0002794 138.9003 221.2200 15.08838723 88391,6917.884,95.438,541.682,537.816,0.0
54075.0,STARLINK-5212,PAYLOAD,2024-05-23 00:08:41,15.08828067,0.0001357,53.2176,42.213,95.0608,265.0539,-9.09e-05,-1.734e-05,0.0,0 STARLINK-5212,1 54075U 22136AA  24144.00603100 -.00001734  00000-0 -90900-4 0  9999,2 54075  53.2176  42.2130 0001357  95.0608 265.0539 15.08828067 88419,6917.917,95.438,540.721,538.843,0.0
54075.0,STARLINK-5212,PAYLOAD,2024-05-23 20:48:41,15.08843368,0.0001227,53.2181,38.3467,64.6242,295.4877,-3.4949e-05,-8.44e-06,0.0,0 STARLINK-5212,1 54075U 22136AA  24144.86714254 -.00000844  00000-0 -34949-4 0  9998,2 54075  53.2181  38.3467 0001227  64.6242 295.4877 15.08843368 88543,6917.87,95.437,540.584,538.886,0.0
54075.0,STARLINK-5212,PAYLOAD,2024-05-23 22:24:03,15.08846581,0.000141,53.2183,38.0493,96.9126,263.2026,-8.0885e-06,-4.17e-06,0.0,0 STARLINK-5212,1 54075U 22136AA  24144.93337854 -.00000417  00000-0 -80885-5 0  9990,2 54075  53.2183  38.0493 0001410  96.9126 263.2026 15.08846581 88071,6917.86,95.437,540.701,538.75,0.0
54075.0,STARLINK-5212,PAYLOAD,2024-05-24 22:14:51,15.0883142,0.0001373,53.2183,33.5915,105.069,255.0455,0.00022027,3.219e-05,0.0,0 STARLINK-5212,1 54075U 22136AA  24145.92698547  .00003219  00000-0  22027-3 0  9992,2 54075  53.2183  33.5915 0001373 105.0690 255.0455 15.08831420 88224,6917.907,95.438,540.721,538.822,0.0
54075.0,STARLINK-5212,PAYLOAD,2024-05-25 01:25:37,15.08835232,0.0001401,53.2186,32.9965,104.0833,256.0315,0.00025016,3.695e-05,0.0,0 STARLINK-5212,1 54075U 22136AA  24146.05946316  .00003695  00000-0  25016-3 0  9996,2 54075  53.2186  32.9965 0001401 104.0833 256.0315 15.08835232 88721,6917.895,95.438,540.729,538.791,0.0
54075.0,STARLINK-5212,PAYLOAD,2024-05-25 09:22:33,15.08830972,0.0001161,53.2181,31.5075,94.2578,265.8547,0.0002142,3.122e-05,0.0,0 STARLINK-5212,1 54075U 22136AA  24146.39066688  .00003122  00000-0  21420-3 0  9998,2 54075  53.2181  31.5075 0001161  94.2578 265.8547 15.08830972 88295,6917.908,95.438,540.576,538.97,0.0
54075.0,STARLINK-5212,PAYLOAD,2024-05-25 20:30:16,15.08831002,0.0001196,53.2181,29.4256,72.4706,287.6417,-0.00026227,-4.458e-05,0.0,0 STARLINK-5212,1 54075U 22136AA  24146.85435925 -.00004458  00000-0 -26227-3 0  9998,2 54075  53.2181  29.4256 0001196  72.4706 287.6417 15.08831002 88845,6917.908,95.438,540.6,538.946,0.0
54075.0,STARLINK-5212,PAYLOAD,2024-05-26 01:16:24,15.08852223,0.0001156,53.2181,28.5329,91.638,268.4744,-6.9858e-05,-1.4e-05,0.0,0 STARLINK-5212,1 54075U 22136AA  24147.05305951 -.00001400  00000-0 -69858-4 0  9998,2 54075  53.2181  28.5329 0001156  91.6380 268.4744 15.08852223 88874,6917.843,95.437,540.508,538.908,0.0
54075.0,STARLINK-5212,PAYLOAD,2024-05-26 12:24:06,15.08843853,0.0001198,53.2184,26.4507,110.2711,249.841,9.422e-06,-1.38e-06,0.0,0 STARLINK-5212,1 54075U 22136AA  24147.51674407 -.00000138  00000-0  94220-5 0  9992,2 54075  53.2184  26.4507 0001198 110.2711 249.8410 15.08843853 88944,6917.869,95.437,540.562,538.905,0.0
54075.0,STARLINK-5212,PAYLOAD,2024-05-26 15:34:52,15.08841718,0.00011,53.2184,25.8571,98.5569,261.5548,4.3342e-05,4.02e-06,0.0,0 STARLINK-5212,1 54075U 22136AA  24147.64922404  .00000402  00000-0  43342-4 0  9990,2 54075  53.2184  25.8571 0001100  98.5569 261.5548 15.08841718 88480,6917.875,95.437,540.501,538.979,0.0
